IXPE                    
1 49954U 21121A   24134.58334491  .00006382  00000+0  46114-3 0  9996
2 49954   0.2297 290.5927 0009788 123.2819 347.2930 14.97754235  5746
